0 METEOR 2-5 DEB
1 36922U 79095BP  13281.40976372  .00005248  00000-0  13595-2 0  2587
2 36922 081.2033 174.6491 0003859 334.5627 025.5375 14.49732477472871
0 METEOR 2-5 DEB
1 36922U 79095BP  13284.37750989  .00005433  00000-0  14064-2 0  2599
2 36922 081.2026 171.5579 0005397 329.1354 030.9890 14.49767127473303
0 METEOR 2-5 DEB
1 36922U 79095BP  13285.41274530  .00005723  00000-0  14808-2 0  2608
2 36922 081.2006 170.4720 0006065 321.4847 038.7187 14.49785207473452
0 METEOR 2-5 DEB
1 36922U 79095BP  13288.38035577  .00006358  00000-0  16439-2 0  2611
2 36922 081.2086 167.3633 0004253 245.5572 114.8583 14.49834537473880
0 METEOR 2-5 DEB
1 36922U 79095BP  13289.96758504  .00006710  00000-0  17333-2 0  2625
2 36922 081.2045 165.7129 0008950 296.2784 063.8576 14.49862590474115
0 METEOR 2-5 DEB
1 36922U 79095BP  13291.34779303  .00007354  00000-0  18988-2 0  2633
2 36922 081.1957 164.2876 0008898 333.4617 026.6892 14.49892715474311
0 METEOR 2-5 DEB
1 36922U 79095BP  13293.34906031  .00007745  00000-0  19989-2 0  2642
2 36922 081.2006 162.2005 0004956 339.4047 020.8182 14.49930062474601
0 METEOR 2-5 DEB
1 36922U 79095BP  13295.35026703  .00007972  00000-0  20560-2 0  2654
2 36922 081.2010 160.0999 0004076 312.5465 047.6451 14.49965975474891
